{
    "links": {
        "self": "http://www.neowsapp.com/rest/v1/neo/3158119?api_key=iIulBulltgU6a56xZRHN4H3l9WmuAYTsLGpBGhQ2"
    },
    "id": "3158119",
    "neo_reference_id": "3158119",
    "name": "(2003 QY29)",
    "designation": "2003 QY29",
    "nasa_jpl_url": "http://ssd.jpl.nasa.gov/sbdb.cgi?sstr=3158119",
    "absolute_magnitude_h": 22.3,
    "estimated_diameter": {
        "kilometers": {
            "estimated_diameter_min": 0.0921626549,
            "estimated_diameter_max": 0.2060819612
        },
        "meters": {
            "estimated_diameter_min": 92.1626548503,
            "estimated_diameter_max": 206.0819612321
        },
        "miles": {
            "estimated_diameter_min": 0.057267201,
            "estimated_diameter_max": 0.1280533543
        },
        "feet": {
            "estimated_diameter_min": 302.370924539,
            "estimated_diameter_max": 676.1219416887
        }
    },
    "is_potentially_hazardous_asteroid": false,
    "close_approach_data": [
        {
            "close_approach_date": "2003-08-21",
            "close_approach_date_full": "2003-Aug-21 06:13",
            "epoch_date_close_approach": 1061446380000,
            "relative_velocity": {
                "kilometers_per_second": "11.9975533809",
                "kilometers_per_hour": "43191.1921712969",
                "miles_per_hour": "26837.3271577706"
            },
            "miss_distance": {
                "astronomical": "0.0844722335",
                "lunar": "32.8596988315",
                "kilometers": "12636866.205742645",
                "miles": "7852184.549612701"
            },
            "orbiting_body": "Earth"
        }
    ],
    "orbital_data": {
        "orbit_id": "20",
        "orbit_determination_date": "2017-04-06 09:13:56",
        "first_observation_date": "2003-08-24",
        "last_observation_date": "2003-09-20",
        "data_arc_in_days": 27,
        "observations_used": 62,
        "orbit_uncertainty": "7",
        "minimum_orbit_intersection": ".0529267",
        "jupiter_tisserand_invariant": "3.077",
        "epoch_osculation": "2459000.5",
        "eccentricity": ".5961244937993559",
        "semi_major_axis": "2.621831945847207",
        "inclination": "16.56687833109759",
        "ascending_node_longitude": "326.6387731526939",
        "orbital_period": "1550.621149347018",
        "perihelion_distance": "1.058893704302061",
        "perihelion_argument": "349.0219715893591",
        "aphelion_distance": "4.184770187392354",
        "perihelion_time": "2459095.737355798412",
        "mean_anomaly": "337.8892167813741",
        "mean_motion": ".2321650263519232",
        "equinox": "J2000",
        "orbit_class": {
            "orbit_class_type": "AMO",
            "orbit_class_description": "Near-Earth asteroid orbits similar to that of 1221 Amor",
            "orbit_class_range": "1.017 AU < q (perihelion) < 1.3 AU"
        }
    },
    "is_sentry_object": false
}